DORA                    
1 61502U 98067XA  24292.73597509  .00247804  00000+0  35757-2 0  9991
2 61502  51.6369  63.2375 0006077  68.3925 291.7713 15.54566565  1633
